NILESAT 301             
1 52817U 22061A   26094.17481314 -.00000059  00000+0  00000+0 0  9997
2 52817   0.0637  15.8243 0006047 354.7125 237.9010  1.00271333 13992
CMS-02 (GSAT 24)        
1 52903U 22067A   26094.22614111 -.00000165  00000+0  00000+0 0  9996
2 52903   0.0470  97.2663 0001931 232.9173  26.7610  1.00272822 13860
MEASAT 3D               
1 52904U 22067B   26094.12307294 -.00000243  00000+0  00000+0 0  9994
2 52904   0.0450 324.5623 0002816  26.4305 337.2435  1.00273695 13906
SES-22                  
1 52933U 22071A   26094.22005332  .00000104  00000+0  00000+0 0  9995
2 52933   0.0209 238.6646 0001236 136.7216 117.3530  1.00270909  6787
WFOV (USA 332)          
1 52940U 22073A   26093.98596572 -.00000361  00000+0  00000+0 0  9994
2 52940   3.5210  79.4615 0001931 251.2269 335.7987  1.00274346 13627
TIANLIAN 2-03           
1 53100U 22078A   26094.19975204  .00000071  00000+0  00000+0 0  9992
2 53100   0.4832  74.5635 0002942 270.0346 290.4020  1.00272451 13808
SBIRS GEO-6 (USA 336)   
1 53355U 22092A   26094.20375993 -.00000296  00000+0  00000+0 0  9991
2 53355   3.3852 316.3017 0002249  54.7468  33.8122  1.00272347 13498
EUTELSAT KONNECT VHTS   
1 53765U 22110A   26094.17671982  .00000016  00000+0  00000+0 0  9999
2 53765   0.0630 100.1826 0002843 250.7365 267.8896  1.00270804  6093
ZHONGXING-1E            
1 53813U 22112A   26094.12107959 -.00000150  00000+0  00000+0 0  9998
2 53813   0.0088  62.7207 0001801 254.2261   0.4880  1.00271055 13100
SES-20                  
1 53960U 22123A   26094.21563871 -.00000102  00000+0  00000+0 0  9999
2 53960   0.0391  83.6399 0001808 347.1903  96.2246  1.00271165 12791
SES-21                  
1 53961U 22123B   26094.21712396  .00000069  00000+0  00000+0 0  9999
2 53961   0.0279  68.5728 0001015 300.0156 131.1044  1.00270682  6479
GALAXY 33 (G-33)        
1 54026U 22128A   26094.22117999  .00000000  00000+0  00000+0 0  9991
2 54026   0.0156 222.9553 0001987 159.1067 117.1024  1.00270954 13001
GALAXY 34 (G-34)        
1 54027U 22128B   26094.21708145  .00000000  00000+0  00000+0 0  9990
2 54027   0.0178 185.5760 0001484 185.0360 131.1333  1.00270403 13172
ANGOSAT 2               
1 54033U 22131A   26094.60863139  .00000136  00000+0  00000+0 0  9999
2 54033   0.0186 190.1702 0001289 279.0043 325.8503  1.00272249 12733
EUTELSAT HOTBIRD 13F    
1 54048U 22134A   26093.35600190  .00000084  00000+0  00000+0 0  9997
2 54048   0.0492 285.9427 0002010  77.5677 329.3284  1.00272917 12628
LDPE-2                  
1 54219U 22144A   26094.20280660 -.00000278  00000+0  00000+0 0  9995
2 54219   5.4632  64.0520 0000406 347.9048 347.6001  1.00542200 11091
EUTELSAT HOTBIRD 13G    
1 54225U 22146A   26094.19975204  .00000087  00000+0  00000+0 0  9994
2 54225   0.0407 229.3293 0001989 305.6943 102.4055  1.00273022  6727
ZHONGXING-19            
1 54230U 22148A   26092.56989009 -.00000087  00000+0  00000+0 0  9990
2 54230   0.0299  90.5303 0002439 279.9636 188.7496  1.00272198 12620
GALAXY 31 (G-31)        
1 54243U 22153A   26094.22360667  .00000013  00000+0  00000+0 0  9996
2 54243   0.0084 221.5941 0001522 163.6812 126.7579  1.00272034  6397
GALAXY 32 (G-32)        
1 54244U 22153B   26094.23466032 -.00000175  00000+0  00000+0 0  9991
2 54244   0.0111 169.0684 0003056 206.5964 170.3594  1.00271821 12402
EUTELSAT 10B            
1 54259U 22157A   26094.17819316  .00000067  00000+0  00000+0 0  9990
2 54259   0.0628  96.0555 0001842  15.6845 154.8542  1.00269221 12282
GALAXY 35 (G-35)        
1 54741U 22170A   26094.23769375 -.00000163  00000+0  00000+0 0  9995
2 54741   0.0094 213.8999 0002123 168.9067 162.2109  1.00272521 12152
GALAXY 36 (G-36)        
1 54742U 22170B   26094.22993336 -.00000186  00000+0  00000+0 0  9996
2 54742   0.0213 144.6607 0002594 270.4265 131.2268  1.00271965 12034
METEOSAT-12 (MTG-I1)    
1 54743U 22170C   26094.17619981 -.00000007  00000+0  00000+0 0  9994
2 54743   0.7394  26.4500 0001563 302.1291 287.0346  1.00274564 12235
SHIJIAN-23 (SJ-23)      
1 55131U 23002A   26093.73753806 -.00000136  00000+0  00000+0 0  9990
2 55131   3.5266  79.2387 0005735 268.7415 262.0603  1.00478109 11762
APSTAR-6E               
1 55239U 23005A   26090.92267031 -.00000329  00000+0  00000+0 0  9994
2 55239   0.0124 196.2836 0000481 121.1212 338.0313  1.00272176 17916
USA 342                 
1 55263U 23008A   26092.25566473  .00000132  00000+0  00000+0 0  9995
2 55263   0.0114 230.5957 0000126 338.8980  96.9531  1.00270632 11756
LDPE-3A                 
1 55264U 23008B   26094.23586623 -.00000267  00000+0  00000+0 0  9995
2 55264   2.1559  82.5392 0000298 328.2031  14.4525  0.99991341 11078
ELEKTRO-L 4             
1 55506U 23016A   26091.01317152 -.00000069  00000+0  00000+0 0  9995
2 55506   0.0531 340.4397 0001291 316.5408  62.9891  1.00273991 11562
AMAZONAS NEXUS          
1 55508U 23017A   26092.26711507  .00000000  00000+0  00000+0 0  9992
2 55508   0.0176  69.4748 0004882 317.4336 198.8686  1.00266846  6281
ZHONGXING-26            
1 55686U 23023A   26093.48794876 -.00000356  00000+0  00000+0 0  9996
2 55686   0.0690  63.7523 0004551 347.1096  81.6679  1.00266831 11486
LUCH-5X (OLYMP-K 2)     
1 55841U 23031A   26093.68933289  .00000031  00000+0  00000+0 0  9992
2 55841   0.0254  86.6133 0001389 131.9973 283.5399  1.00271197 11196
GAOFEN-13 02            
1 55912U 23036A   26093.88393036 -.00000220  00000+0  00000+0 0  9999
2 55912   1.0235 351.6325 0005126 338.7686 328.2031  1.00275239 11342
SES-18                  
1 55970U 23038A   26094.21563954 -.00000102  00000+0  00000+0 0  9990
2 55970   0.0276 260.9827 0001665  72.7588 193.3142  1.00272181 11368
SES-19                  
1 55971U 23038B   26094.22083332  .00000087  00000+0  00000+0 0  9990
2 55971   0.0246 277.7211 0001814  97.9238 121.4933  1.00273500 11340
INTELSAT 40E (IS-40E)   
1 56174U 23052A   26094.23473685 -.00000175  00000+0  00000+0 0  9996
2 56174   0.0113 156.0598 0000746 249.5086 140.4884  1.00271894 11086
VIASAT-3 F1             
1 56370U 23060A   26094.08736612 -.00000187  00000+0  00000+0 0  9991
2 56370   0.0144 236.0166 0000830 210.6643  48.2854  1.00272361 10698
ARCTURUS                
1 56371U 23060B   26094.19058654 -.00000062  00000+0  00000+0 0  9999
2 56371   2.5850  80.8631 0001097 318.4316 294.3110  1.00272596 10714
GS-1                    
1 56372U 23060C   26092.95669659 -.00000199  00000+0  00000+0 0  9996
2 56372   2.5322  80.6921 0004712 268.0252 272.8865  1.00293836  6785
BEIDOU-3 G4             
1 56564U 23066A   26087.21580603 -.00000301  00000+0  00000+0 0  9994
2 56564   0.6066 314.6390 0002289 165.2828 283.4567  1.00272952 10582
ARABSAT-7B (BADR-8)     
1 56757U 23075A   26094.19419966  .00000144  00000+0  00000+0 0  9990
2 56757   0.0762  27.2561 0005451 336.8766 284.2869  1.00270932 10378
NVS-01 (IRNSS-1J)       
1 56759U 23076A   26094.25600255 -.00000339  00000+0  00000+0 0  9990
2 56759   2.3431 247.4659 0006568  55.3567 111.3343  1.00266854 10379
NUSANTARA TIGA (SATRIA) 
1 57045U 23086A   26094.25044443 -.00000235  00000+0  00000+0 0  9996
2 57045   0.0518 310.8218 0005505  21.3267  96.5756  1.00270717  9019
H2SAT (HEINRICH HERTZ)  
1 57213U 23093A   26094.17637315  .00000000  00000+0  00000+0 0  9997
2 57213   0.0134 203.0401 0001264 254.1658 159.4757  1.00271046 10170
SYRACUSE 4B             
1 57214U 23093B   26094.21072575 -.00000054  00000+0  00000+0 0  9994
2 57214   0.0182 184.9237 0000537 258.3435 178.6360  1.00273222  6221
JUPITER 3 (ECHOSTAR 24) 
1 57479U 23108A   26093.73091649 -.00000152  00000+0  00000+0 0  9992
2 57479   0.0149 219.8084 0001036 139.9585   0.2239  1.00274706  9901
GALAXY 37 (G-37)        
1 57493U 23112A   26094.21679855  .00000048  00000+0  00000+0 0  9991
2 57493   0.0185 113.9629 0002084 262.2144 127.3934  1.00271591  9802
LUDI TANCE-4 01A        
1 57624U 23120A   26093.77838714 -.00000190  00000+0  00000+0 0  9996
2 57624  15.1515 195.8148 0003760 109.9279 256.1364  1.00273255  9802
TJS-10                  
1 58204U 23169A   26093.71364131 -.00000130  00000+0  00000+0 0  9999
2 58204   2.3529  81.3663 0000995  51.7914  30.6907  1.00463027  8791
ZHONGXING-6E            
1 58253U 23172A   26094.26155749 -.00000362  00000+0  00000+0 0  9998
2 58253   0.0164 243.8764 0002623 132.6523  25.7081  1.00274714  8912
YAOGAN-41               
1 58582U 23197A   26093.70154216 -.00000367  00000+0  00000+0 0  9991
2 58582   3.2667 312.0212 0011865 181.2178  74.5900  1.00273180  8571
OVZON-3                 
1 58698U 24003A   26094.18807319  .00000050  00000+0  00000+0 0  9996
2 58698   0.0108 203.9824 0000135 217.1745 258.7418  1.00274181  6703
INSAT-3DS               
1 58990U 24033A   26094.22614111 -.00000156  00000+0  00000+0 0  9993
2 58990   0.0396  96.6587 0002165 283.0012 336.3696  1.00271691 46320
MERAH PUTIH 2           
1 58995U 24035A   26094.05599267 -.00000359  00000+0  00000+0 0  9990
2 58995   0.0107 164.3955 0001333 241.9309 279.1578  1.00273172  7848
TJS-11                  
1 59020U 24037A   26093.62961929 -.00000375  00000+0  00000+0 0  9990
2 59020   4.2993 326.1557 0005944  65.7785 146.9858  1.00269430  7838
HULIANWAN GAOGUI-01 (H*)
1 59069U 24040A   26094.18864199  .00000155  00000+0  00000+0 0  9995
2 59069   0.0665 319.2229 0004038  58.3184 276.4981  1.00270980  6583
EUTELSAT 36D            
1 59346U 24059A   26093.68421953  .00000154  00000+0  00000+0 0  9993
2 59346   0.0162 149.5181 0000575 288.5605  36.1074  1.00272585  7400
PAKSAT-MM1              
1 59915U 24104A   26093.68465288  .00000152  00000+0  00000+0 0  9993
2 59915   0.0111 202.4909 0002401 170.4447 103.7444  1.00272161  6788
ASTRA 1P (SES-24)       
1 60086U 24115A   26094.19419966  .00000119  00000+0  00000+0 0  9998
2 60086   0.0668  26.6465 0003037 280.1218 334.8385  1.00269992  6453
